CCSDS_OMM_VERS = 2.0
CREATION_DATE  = 
ORIGINATOR     = 

OBJECT_NAME    = SL-16 R/B
OBJECT_ID      = 1993-016B
CENTER_NAME    = EARTH
REF_FRAME      = TEME
TIME_SYSTEM    = UTC
MEAN_ELEMENT_THEORY = SGP/SGP4

EPOCH          = 2026-01-02T09:55:51.316032
MEAN_MOTION    = 14.15296160
ECCENTRICITY   = .00080795
INCLINATION    = 71.0090
RA_OF_ASC_NODE = 354.3810
ARG_OF_PERICENTER = 55.7280
MEAN_ANOMALY   = 304.4607

EPHEMERIS_TYPE = 0
CLASSIFICATION_TYPE = U
NORAD_CAT_ID   = 22566
ELEMENT_SET_NO = 999
REV_AT_EPOCH   = 69279
BSTAR          = .27694165E-4
MEAN_MOTION_DOT = .6E-7
MEAN_MOTION_DDOT = 0

CCSDS_OMM_VERS = 2.0
CREATION_DATE  = 
ORIGINATOR     = 

OBJECT_NAME    = COSMOS 2242
OBJECT_ID      = 1993-024A
CENTER_NAME    = EARTH
REF_FRAME      = TEME
TIME_SYSTEM    = UTC
MEAN_ELEMENT_THEORY = SGP/SGP4

EPOCH          = 2026-01-02T10:27:02.667456
MEAN_MOTION    = 14.96212695
ECCENTRICITY   = .00167285
INCLINATION    = 82.5196
RA_OF_ASC_NODE = 330.0617
ARG_OF_PERICENTER = 162.0255
MEAN_ANOMALY   = 198.1562

EPHEMERIS_TYPE = 0
CLASSIFICATION_TYPE = U
NORAD_CAT_ID   = 22626
ELEMENT_SET_NO = 999
REV_AT_EPOCH   = 77048
BSTAR          = .38126632E-3
MEAN_MOTION_DOT = .4335E-4
MEAN_MOTION_DDOT = 0

CCSDS_OMM_VERS = 2.0
CREATION_DATE  = 
ORIGINATOR     = 

OBJECT_NAME    = SL-16 R/B
OBJECT_ID      = 1993-059B
CENTER_NAME    = EARTH
REF_FRAME      = TEME
TIME_SYSTEM    = UTC
MEAN_ELEMENT_THEORY = SGP/SGP4

EPOCH          = 2026-01-02T20:04:00.358464
MEAN_MOTION    = 14.17219496
ECCENTRICITY   = .0019194
INCLINATION    = 70.9900
RA_OF_ASC_NODE = 149.9997
ARG_OF_PERICENTER = 305.7807
MEAN_ANOMALY   = 54.1532

EPHEMERIS_TYPE = 0
CLASSIFICATION_TYPE = U
NORAD_CAT_ID   = 22803
ELEMENT_SET_NO = 999
REV_AT_EPOCH   = 67020
BSTAR          = -.41469E-5
MEAN_MOTION_DOT = -.57E-6
MEAN_MOTION_DDOT = 0

CCSDS_OMM_VERS = 2.0
CREATION_DATE  = 
ORIGINATOR     = 

OBJECT_NAME    = ARIANE 40 R/B
OBJECT_ID      = 1993-061H
CENTER_NAME    = EARTH
REF_FRAME      = TEME
TIME_SYSTEM    = UTC
MEAN_ELEMENT_THEORY = SGP/SGP4

EPOCH          = 2026-01-02T18:39:53.178912
MEAN_MOTION    = 14.32818484
ECCENTRICITY   = .0011754
INCLINATION    = 98.5045
RA_OF_ASC_NODE = 72.9221
ARG_OF_PERICENTER = 117.6567
MEAN_ANOMALY   = 242.5811

EPHEMERIS_TYPE = 0
CLASSIFICATION_TYPE = U
NORAD_CAT_ID   = 22830
ELEMENT_SET_NO = 999
REV_AT_EPOCH   = 68466
BSTAR          = .22795E-3
MEAN_MOTION_DOT = .579E-5
MEAN_MOTION_DDOT = 0

CCSDS_OMM_VERS = 2.0
CREATION_DATE  = 
ORIGINATOR     = 

OBJECT_NAME    = COSMOS 2278
OBJECT_ID      = 1994-023A
CENTER_NAME    = EARTH
REF_FRAME      = TEME
TIME_SYSTEM    = UTC
MEAN_ELEMENT_THEORY = SGP/SGP4

EPOCH          = 2026-01-02T14:41:15.834048
MEAN_MOTION    = 14.14354339
ECCENTRICITY   = .00074192
INCLINATION    = 71.0542
RA_OF_ASC_NODE = 313.3418
ARG_OF_PERICENTER = 141.6137
MEAN_ANOMALY   = 218.5515

EPHEMERIS_TYPE = 0
CLASSIFICATION_TYPE = U
NORAD_CAT_ID   = 23087
ELEMENT_SET_NO = 999
REV_AT_EPOCH   = 63546
BSTAR          = .2666679E-3
MEAN_MOTION_DOT = .463E-5
MEAN_MOTION_DDOT = 0

CCSDS_OMM_VERS = 2.0
CREATION_DATE  = 
ORIGINATOR     = 

OBJECT_NAME    = SL-16 R/B
OBJECT_ID      = 1994-023B
CENTER_NAME    = EARTH
REF_FRAME      = TEME
TIME_SYSTEM    = UTC
MEAN_ELEMENT_THEORY = SGP/SGP4

EPOCH          = 2026-01-02T19:54:59.700096
MEAN_MOTION    = 14.14999139
ECCENTRICITY   = .0002521
INCLINATION    = 70.9977
RA_OF_ASC_NODE = 209.1969
ARG_OF_PERICENTER = 355.3281
MEAN_ANOMALY   = 4.7818

EPHEMERIS_TYPE = 0
CLASSIFICATION_TYPE = U
NORAD_CAT_ID   = 23088
ELEMENT_SET_NO = 999
REV_AT_EPOCH   = 63677
BSTAR          = .11996E-3
MEAN_MOTION_DOT = .185E-5
MEAN_MOTION_DDOT = 0

CCSDS_OMM_VERS = 2.0
CREATION_DATE  = 
ORIGINATOR     = 

OBJECT_NAME    = SL-16 R/B
OBJECT_ID      = 1994-074B
CENTER_NAME    = EARTH
REF_FRAME      = TEME
TIME_SYSTEM    = UTC
MEAN_ELEMENT_THEORY = SGP/SGP4

EPOCH          = 2026-01-02T20:49:10.423200
MEAN_MOTION    = 14.79319351
ECCENTRICITY   = .0007982
INCLINATION    = 97.7182
RA_OF_ASC_NODE = 36.3302
ARG_OF_PERICENTER = 78.2960
MEAN_ANOMALY   = 94.9376

EPHEMERIS_TYPE = 0
CLASSIFICATION_TYPE = U
NORAD_CAT_ID   = 23343
ELEMENT_SET_NO = 999
REV_AT_EPOCH   = 67751
BSTAR          = .14421E-3
MEAN_MOTION_DOT = .1024E-4
MEAN_MOTION_DDOT = 0

CCSDS_OMM_VERS = 2.0
CREATION_DATE  = 
ORIGINATOR     = 

OBJECT_NAME    = SL-16 R/B
OBJECT_ID      = 1994-077B
CENTER_NAME    = EARTH
REF_FRAME      = TEME
TIME_SYSTEM    = UTC
MEAN_ELEMENT_THEORY = SGP/SGP4

EPOCH          = 2026-01-02T18:23:44.873376
MEAN_MOTION    = 14.15550121
ECCENTRICITY   = .000502
INCLINATION    = 70.9825
RA_OF_ASC_NODE = 131.1796
ARG_OF_PERICENTER = 267.2226
MEAN_ANOMALY   = 92.8322

EPHEMERIS_TYPE = 0
CLASSIFICATION_TYPE = U
NORAD_CAT_ID   = 23405
ELEMENT_SET_NO = 999
REV_AT_EPOCH   = 60690
BSTAR          = -.42739E-4
MEAN_MOTION_DOT = -.132E-5
MEAN_MOTION_DDOT = 0

CCSDS_OMM_VERS = 2.0
CREATION_DATE  = 
ORIGINATOR     = 

OBJECT_NAME    = ARIANE 40+ R/B
OBJECT_ID      = 1995-021B
CENTER_NAME    = EARTH
REF_FRAME      = TEME
TIME_SYSTEM    = UTC
MEAN_ELEMENT_THEORY = SGP/SGP4

EPOCH          = 2026-01-02T19:18:31.169088
MEAN_MOTION    = 14.39715187
ECCENTRICITY   = .0006403
INCLINATION    = 98.4623
RA_OF_ASC_NODE = 75.1367
ARG_OF_PERICENTER = 347.8737
MEAN_ANOMALY   = 123.9220

EPHEMERIS_TYPE = 0
CLASSIFICATION_TYPE = U
NORAD_CAT_ID   = 23561
ELEMENT_SET_NO = 999
REV_AT_EPOCH   = 60976
BSTAR          = .22506E-3
MEAN_MOTION_DOT = .661E-5
MEAN_MOTION_DDOT = 0

CCSDS_OMM_VERS = 2.0
CREATION_DATE  = 
ORIGINATOR     = 

OBJECT_NAME    = SL-16 R/B
OBJECT_ID      = 1995-058B
CENTER_NAME    = EARTH
REF_FRAME      = TEME
TIME_SYSTEM    = UTC
MEAN_ELEMENT_THEORY = SGP/SGP4

EPOCH          = 2026-01-02T15:05:37.409280
MEAN_MOTION    = 14.15483844
ECCENTRICITY   = .00142534
INCLINATION    = 71.0223
RA_OF_ASC_NODE = 318.9473
ARG_OF_PERICENTER = 227.1719
MEAN_ANOMALY   = 132.8207

EPHEMERIS_TYPE = 0
CLASSIFICATION_TYPE = U
NORAD_CAT_ID   = 23705
ELEMENT_SET_NO = 999
REV_AT_EPOCH   = 55850
BSTAR          = .18580449E-3
MEAN_MOTION_DOT = .316E-5
MEAN_MOTION_DDOT = 0

CCSDS_OMM_VERS = 2.0
CREATION_DATE  = 
ORIGINATOR     = 

OBJECT_NAME    = SL-16 R/B
OBJECT_ID      = 1996-051B
CENTER_NAME    = EARTH
REF_FRAME      = TEME
TIME_SYSTEM    = UTC
MEAN_ELEMENT_THEORY = SGP/SGP4

EPOCH          = 2026-01-02T14:14:47.762304
MEAN_MOTION    = 14.12399139
ECCENTRICITY   = .00193961
INCLINATION    = 70.7599
RA_OF_ASC_NODE = 315.1420
ARG_OF_PERICENTER = 235.7951
MEAN_ANOMALY   = 124.1331

EPHEMERIS_TYPE = 0
CLASSIFICATION_TYPE = U
NORAD_CAT_ID   = 24298
ELEMENT_SET_NO = 999
REV_AT_EPOCH   = 51231
BSTAR          = .54664595E-4
MEAN_MOTION_DOT = .52E-6
MEAN_MOTION_DDOT = 0

CCSDS_OMM_VERS = 2.0
CREATION_DATE  = 
ORIGINATOR     = 

OBJECT_NAME    = ORBVIEW 2 (SEASTAR)
OBJECT_ID      = 1997-037A
CENTER_NAME    = EARTH
REF_FRAME      = TEME
TIME_SYSTEM    = UTC
MEAN_ELEMENT_THEORY = SGP/SGP4

EPOCH          = 2026-01-02T09:48:32.264064
MEAN_MOTION    = 14.35436049
ECCENTRICITY   = .00013441
INCLINATION    = 98.8470
RA_OF_ASC_NODE = 165.0053
ARG_OF_PERICENTER = 244.0891
MEAN_ANOMALY   = 116.0155

EPHEMERIS_TYPE = 0
CLASSIFICATION_TYPE = U
NORAD_CAT_ID   = 24883
ELEMENT_SET_NO = 999
REV_AT_EPOCH   = 49896
BSTAR          = .25143153E-3
MEAN_MOTION_DOT = .676E-5
MEAN_MOTION_DDOT = 0

