SL-16 R/B               
1 22566U 93016B   26002.41378838  .00000006  00000+0  27694-4 0  9999
2 22566  71.0090 354.3810 0008079  55.7280 304.4607 14.15296160692797
COSMOS 2242             
1 22626U 93024A   26002.43544754  .00004335  00000+0  38127-3 0  9990
2 22626  82.5196 330.0617 0016728 162.0255 198.1562 14.96212695770489
SL-16 R/B               
1 22803U 93059B   26002.83611526 -.00000057  00000+0 -41469-5 0  9995
2 22803  70.9900 149.9997 0019194 305.7807  54.1532 14.17219496670203
ARIANE 40 R/B           
1 22830U 93061H   26002.77769883  .00000579  00000+0  22795-3 0  9997
2 22830  98.5045  72.9221 0011754 117.6567 242.5811 14.32818484684668
COSMOS 2278             
1 23087U 94023A   26002.61198882  .00000463  00000+0  26667-3 0  9993
2 23087  71.0542 313.3418 0007419 141.6137 218.5515 14.14354339635466
SL-16 R/B               
1 23088U 94023B   26002.82985764  .00000185  00000+0  11996-3 0  9990
2 23088  70.9977 209.1969 0002521 355.3281   4.7818 14.14999139636772
SL-16 R/B               
1 23343U 94074B   26002.86748175  .00001024  00000+0  14421-3 0  9996
2 23343  97.7182  36.3302 0007982  78.2960  94.9376 14.79319351677513
SL-16 R/B               
1 23405U 94077B   26002.76649159 -.00000132  00000+0 -42739-4 0  9994
2 23405  70.9825 131.1796 0005020 267.2226  92.8322 14.15550121606901
ARIANE 40+ R/B          
1 23561U 95021B   26002.80452742  .00000661  00000+0  22506-3 0  9996
2 23561  98.4623  75.1367 0006403 347.8737 123.9220 14.39715187609765
SL-16 R/B               
1 23705U 95058B   26002.62890520  .00000316  00000+0  18580-3 0  9990
2 23705  71.0223 318.9473 0014253 227.1719 132.8207 14.15483844558501
SL-16 R/B               
1 24298U 96051B   26002.59360836  .00000052  00000+0  54665-4 0  9992
2 24298  70.7599 315.1420 0019396 235.7951 124.1331 14.12399139512319
ORBVIEW 2 (SEASTAR)     
1 24883U 97037A   26002.40870676  .00000676  00000+0  25143-3 0  9995
2 24883  98.8470 165.0053 0001344 244.0891 116.0155 14.35436049498967
